[
    {
        "Altitude(m)": 570587.9655765839,
        "Argument of Periapsis(deg)": 0.013245982221427002,
        "Eccentricity": 0.0,
        "Inclination(deg)": 53.0,
        "Latitude(deg)": -49.93576307458844,
        "Longitude(deg)": 41.43731414648854,
        "Mean Anomaly(deg)": -107.08951426484481,
        "RAAN(deg)": 259.9802867370561,
        "Satellite Name": "Starlink Shell 1 1158",
        "Satellite Number": 1158,
        "Semi-Major Axis(m)": 6931778.249405717,
        "Time(s)": 380
    },
    {
        "Altitude(m)": 570676.5805081397,
        "Argument of Periapsis(deg)": 0.013594560700938237,
        "Eccentricity": 0.0,
        "Inclination(deg)": 53.0,
        "Latitude(deg)": -50.15882218061115,
        "Longitude(deg)": 42.30256728533993,
        "Mean Anomaly(deg)": -106.46268306128815,
        "RAAN(deg)": 259.9797679669786,
        "Satellite Name": "Starlink Shell 1 1158",
        "Satellite Number": 1158,
        "Semi-Major Axis(m)": 6931778.249405717,
        "Time(s)": 390
    },
    {
        "Altitude(m)": 570762.1803217453,
        "Argument of Periapsis(deg)": 0.013943139180449475,
        "Eccentricity": 0.0,
        "Inclination(deg)": 53.0,
        "Latitude(deg)": -50.374732884572566,
        "Longitude(deg)": 43.17614267796383,
        "Mean Anomaly(deg)": -105.83585185773136,
        "RAAN(deg)": 259.9792491969011,
        "Satellite Name": "Starlink Shell 1 1158",
        "Satellite Number": 1158,
        "Semi-Major Axis(m)": 6931778.249405717,
        "Time(s)": 400
    },
    {
        "Altitude(m)": 570844.7309562583,
        "Argument of Periapsis(deg)": 0.014291717659960712,
        "Eccentricity": 0.0,
        "Inclination(deg)": 53.0,
        "Latitude(deg)": -50.58337632202164,
        "Longitude(deg)": 44.05790316149981,
        "Mean Anomaly(deg)": -105.20902065417465,
        "RAAN(deg)": 259.97873042682363,
        "Satellite Name": "Starlink Shell 1 1158",
        "Satellite Number": 1158,
        "Semi-Major Axis(m)": 6931778.249405717,
        "Time(s)": 410
    },
    {
        "Altitude(m)": 570924.1995528983,
        "Argument of Periapsis(deg)": 0.014640296139471948,
        "Eccentricity": 0.0,
        "Inclination(deg)": 53.0,
        "Latitude(deg)": -50.78463516751259,
        "Longitude(deg)": 44.94769552057641,
        "Mean Anomaly(deg)": -104.58218945061795,
        "RAAN(deg)": 259.97821165674617,
        "Satellite Name": "Starlink Shell 1 1158",
        "Satellite Number": 1158,
        "Semi-Major Axis(m)": 6931778.249405717,
        "Time(s)": 420
    },
    {
        "Altitude(m)": 571000.5544695446,
        "Argument of Periapsis(deg)": 0.014988874618983185,
        "Eccentricity": 0.0,
        "Inclination(deg)": 53.0,
        "Latitude(deg)": -50.978393893890974,
        "Longitude(deg)": 45.84535074038515,
        "Mean Anomaly(deg)": -103.95535824706127,
        "RAAN(deg)": 259.9776928866687,
        "Satellite Name": "Starlink Shell 1 1158",
        "Satellite Number": 1158,
        "Semi-Major Axis(m)": 6931778.249405717,
        "Time(s)": 430
    },
    {
        "Altitude(m)": 571073.7652944725,
        "Argument of Periapsis(deg)": 0.015337453098494424,
        "Eccentricity": 0.0,
        "Inclination(deg)": 53.0,
        "Latitude(deg)": -51.16453903822966,
        "Longitude(deg)": 46.75068431578272,
        "Mean Anomaly(deg)": -103.32852704350456,
        "RAAN(deg)": 259.97717411659124,
        "Satellite Name": "Starlink Shell 1 1158",
        "Satellite Number": 1158,
        "Semi-Major Axis(m)": 6931778.249405717,
        "Time(s)": 440
    },
    {
        "Altitude(m)": 571143.802859572,
        "Argument of Periapsis(deg)": 0.01568603157800566,
        "Eccentricity": 0.0,
        "Inclination(deg)": 53.0,
        "Latitude(deg)": -51.3429594733825,
        "Longitude(deg)": 47.66349510841261,
        "Mean Anomaly(deg)": -102.70169583994777,
        "RAAN(deg)": 259.9766553465137,
        "Satellite Name": "Starlink Shell 1 1158",
        "Satellite Number": 1158,
        "Semi-Major Axis(m)": 6931778.249405717,
        "Time(s)": 450
    },
    {
        "Altitude(m)": 571210.6392530232,
        "Argument of Periapsis(deg)": 0.0160346100575169,
        "Eccentricity": 0.0,
        "Inclination(deg)": 53.0,
        "Latitude(deg)": -51.51354668400247,
        "Longitude(deg)": 48.583565782230394,
        "Mean Anomaly(deg)": -102.07486463639111,
        "RAAN(deg)": 259.97613657643626,
        "Satellite Name": "Starlink Shell 1 1158",
        "Satellite Number": 1158,
        "Semi-Major Axis(m)": 6931778.249405717,
        "Time(s)": 460
    },
    {
        "Altitude(m)": 571274.2478313792,
        "Argument of Periapsis(deg)": 0.016383188537028134,
        "Eccentricity": 0.0,
        "Inclination(deg)": 53.0,
        "Latitude(deg)": -51.67619504576837,
        "Longitude(deg)": 49.51066330890685,
        "Mean Anomaly(deg)": -101.44803343283436,
        "RAAN(deg)": 259.9756178063588,
        "Satellite Name": "Starlink Shell 1 1158",
        "Satellite Number": 1158,
        "Semi-Major Axis(m)": 6931778.249405717,
        "Time(s)": 470
    },
    {
        "Altitude(m)": 571334.6032311645,
        "Argument of Periapsis(deg)": 0.01673176701653937,
        "Eccentricity": 0.0,
        "Inclination(deg)": 53.0,
        "Latitude(deg)": -51.83080210645819,
        "Longitude(deg)": 50.444538034207014,
        "Mean Anomaly(deg)": -100.82120222927759,
        "RAAN(deg)": 259.97509903628134,
        "Satellite Name": "Starlink Shell 1 1158",
        "Satellite Number": 1158,
        "Semi-Major Axis(m)": 6931778.249405717,
        "Time(s)": 480
    },
    {
        "Altitude(m)": 571391.6813798544,
        "Argument of Periapsis(deg)": 0.017080345496050607,
        "Eccentricity": 0.0,
        "Inclination(deg)": 53.0,
        "Latitude(deg)": -51.977268867404916,
        "Longitude(deg)": 51.38492433460354,
        "Mean Anomaly(deg)": -100.19437102572093,
        "RAAN(deg)": 259.9745802662038,
        "Satellite Name": "Starlink Shell 1 1158",
        "Satellite Number": 1158,
        "Semi-Major Axis(m)": 6931778.249405717,
        "Time(s)": 490
    },
    {
        "Altitude(m)": 571445.4595063165,
        "Argument of Periapsis(deg)": 0.017428923975561842,
        "Eccentricity": 0.0,
        "Inclination(deg)": 53.0,
        "Latitude(deg)": -52.11550006378959,
        "Longitude(deg)": 52.331541354233366,
        "Mean Anomaly(deg)": -99.56753982216419,
        "RAAN(deg)": 259.97406149612635,
        "Satellite Name": "Starlink Shell 1 1158",
        "Satellite Number": 1158,
        "Semi-Major Axis(m)": 6931778.249405717,
        "Time(s)": 500
    },
    {
        "Altitude(m)": 571495.9161506967,
        "Argument of Periapsis(deg)": 0.01777750245507308,
        "Eccentricity": 0.0,
        "Inclination(deg)": 53.0,
        "Latitude(deg)": -52.245404442149095,
        "Longitude(deg)": 53.28409231169598,
        "Mean Anomaly(deg)": -98.94070861860753,
        "RAAN(deg)": 259.97354272604895,
        "Satellite Name": "Starlink Shell 1 1158",
        "Satellite Number": 1158,
        "Semi-Major Axis(m)": 6931778.249405717,
        "Time(s)": 510
    },
    {
        "Altitude(m)": 571543.0311736944,
        "Argument of Periapsis(deg)": 0.018126080934584315,
        "Eccentricity": 0.0,
        "Inclination(deg)": 53.0,
        "Latitude(deg)": -52.366895033419176,
        "Longitude(deg)": 54.24226540421099,
        "Mean Anomaly(deg)": -98.31387741505074,
        "RAAN(deg)": 259.9730239559714,
        "Satellite Name": "Starlink Shell 1 1158",
        "Satellite Number": 1158,
        "Semi-Major Axis(m)": 6931778.249405717,
        "Time(s)": 520
    },
    {
        "Altitude(m)": 571586.7857652999,
        "Argument of Periapsis(deg)": 0.018474659414095554,
        "Eccentricity": 0.0,
        "Inclination(deg)": 53.0,
        "Latitude(deg)": -52.47988941971912,
        "Longitude(deg)": 55.205734796667215,
        "Mean Anomaly(deg)": -97.6870462114941,
        "RAAN(deg)": 259.97250518589397,
        "Satellite Name": "Starlink Shell 1 1158",
        "Satellite Number": 1158,
        "Semi-Major Axis(m)": 6931778.249405717,
        "Time(s)": 530
    },
    {
        "Altitude(m)": 571627.1624529554,
        "Argument of Periapsis(deg)": 0.018823237893606792,
        "Eccentricity": 0.0,
        "Inclination(deg)": 53.0,
        "Latitude(deg)": -52.58430999328184,
        "Longitude(deg)": 56.17416018421071,
        "Mean Anomaly(deg)": -97.06021500793744,
        "RAAN(deg)": 259.97198641581645,
        "Satellite Name": "Starlink Shell 1 1158",
        "Satellite Number": 1158,
        "Semi-Major Axis(m)": 6931778.249405717,
        "Time(s)": 540
    },
    {
        "Altitude(m)": 571664.1451091054,
        "Argument of Periapsis(deg)": 0.019171816373118027,
        "Eccentricity": 0.0,
        "Inclination(deg)": 53.0,
        "Latitude(deg)": -52.68008420552165,
        "Longitude(deg)": 57.14718795148594,
        "Mean Anomaly(deg)": -96.43338380438057,
        "RAAN(deg)": 259.971467645739,
        "Satellite Name": "Starlink Shell 1 1158",
        "Satellite Number": 1158,
        "Semi-Major Axis(m)": 6931778.249405717,
        "Time(s)": 550
    },
    {
        "Altitude(m)": 571697.7189581809,
        "Argument of Periapsis(deg)": 0.019520394852629266,
        "Eccentricity": 0.0,
        "Inclination(deg)": 53.0,
        "Latitude(deg)": -52.767144804658244,
        "Longitude(deg)": 58.124452415536155,
        "Mean Anomaly(deg)": -95.80655260082395,
        "RAAN(deg)": 259.9709488756616,
        "Satellite Name": "Starlink Shell 1 1158",
        "Satellite Number": 1158,
        "Semi-Major Axis(m)": 6931778.249405717,
        "Time(s)": 560
    }
]